[{"OBJECT_NAME":"NUSAT-44 (MARIA MITCHELL)","OBJECT_ID":"2024-043AA","EPOCH":"2026-03-09T22:12:18.524160","MEAN_MOTION":15.29764305,"ECCENTRICITY":0.0007331,"INCLINATION":97.5299,"RA_OF_ASC_NODE":207.7691,"ARG_OF_PERICENTER":214.9017,"MEAN_ANOMALY":145.1743,"EPHEMERIS_TYPE":0,"CLASSIFICATION_TYPE":"U","NORAD_CAT_ID":59122,"ELEMENT_SET_NO":999,"REV_AT_EPOCH":11209,"BSTAR":0.00061063193,"MEAN_MOTION_DOT":0.00017562,"MEAN_MOTION_DDOT":0},{"OBJECT_NAME":"STARLINK-32329","OBJECT_ID":"2025-014B","EPOCH":"2026-03-09T06:24:51.651072","MEAN_MOTION":15.27581309,"ECCENTRICITY":8.741e-5,"INCLINATION":42.9925,"RA_OF_ASC_NODE":156.6965,"ARG_OF_PERICENTER":328.9918,"MEAN_ANOMALY":31.0882,"EPHEMERIS_TYPE":0,"CLASSIFICATION_TYPE":"U","NORAD_CAT_ID":62736,"ELEMENT_SET_NO":999,"REV_AT_EPOCH":6319,"BSTAR":0.00096267325,"MEAN_MOTION_DOT":0.00026324,"MEAN_MOTION_DDOT":0}]
